OBJECT_NAME,OBJECT_ID,EPOCH,MEAN_MOTION,ECCENTRICITY,INCLINATION,RA_OF_ASC_NODE,ARG_OF_PERICENTER,MEAN_ANOMALY,EPHEMERIS_TYPE,CLASSIFICATION_TYPE,NORAD_CAT_ID,ELEMENT_SET_NO,REV_AT_EPOCH,BSTAR,MEAN_MOTION_DOT,MEAN_MOTION_DDOT
SAUDISAT 2,2004-025F,2026-05-20T09:58:41.070432,14.56664647,.00252218,98.5509,139.6811,24.8408,335.3998,0,U,28371,999,16170,.44890375E-4,.151E-5,0
COSMOS 2407,2004-028A,2026-05-20T14:36:52.028064,13.76332189,.00385766,82.9591,95.2581,331.5713,202.1516,0,U,28380,999,9608,.45085901E-4,.59E-6,0
COSMOS 2414,2005-002A,2026-05-20T11:50:32.788320,13.87923539,.0041325,82.9505,64.5924,49.6721,310.8041,0,U,28521,999,7997,.50517688E-4,.76E-6,0
INMARSAT 4-F1,2005-009A,2026-05-20T13:22:05.532672,1.00269939,.00025788,5.1328,42.7095,13.8206,200.3142,0,U,28628,999,7739,0,.26E-6,0
SJ-7,2005-024A,2026-05-20T12:44:44.625984,15.21068783,.00174378,97.7302,169.8989,125.5705,234.7158,0,U,28737,999,14382,.23529204E-3,.5174E-4,0
CUBESAT XI-V,2005-043F,2026-05-20T09:47:25.699776,14.72547895,.00128366,98.2955,295.4528,295.7094,64.2787,0,U,28895,999,9766,.133382E-3,.795E-5,0
HINODE (SOLAR-B),2006-041A,2026-05-20T01:06:59.527584,14.68576898,.00179327,98.0559,156.6138,22.2342,337.9637,0,U,29479,999,5074,.78487229E-4,.408E-5,0
SHIJIAN-6 02B (SJ-6 02B),2006-046B,2026-05-20T14:53:22.216992,15.01292502,.00123961,97.7153,169.8495,146.5517,213.6492,0,U,29506,999,6660,.10832142E-3,.1334E-4,0
DMSP 5D-3 F17 (USA 191),2006-050A,2026-05-20T14:12:47.956608,14.14987859,.00109876,98.7383,147.7269,130.2713,229.9423,0,U,29522,999,852,.241226E-4,.3E-7,0
LAPAN-TUBSAT,2007-001A,2026-05-20T13:52:31.232928,14.85919264,.00106889,98.1341,139.1815,277.6345,82.3655,0,U,29709,999,4705,.19062344E-4,.108E-5,0
HAIYANG-1B,2007-010A,2026-05-20T09:16:27.874272,14.31019278,.00122518,98.3487,123.3121,285.7308,74.2524,0,U,31113,999,99665,.31644644E-4,.41E-6,0
COSMO-SKYMED 2,2007-059A,2026-05-20T14:48:06.316992,14.82160251,.00014563,97.8884,324.6150,90.3890,269.7490,0,U,32376,999,99791,.35255344E-4,.228E-5,0
CARTOSAT-2A,2008-021A,2026-05-20T13:59:10.377600,14.79196686,.00112428,97.7646,190.2314,194.1794,165.9104,0,U,32783,999,97472,.13840462E-3,.978E-5,0
CUTE-1.7+APD II (CO-65),2008-021C,2026-05-20T14:28:09.683040,15.09156742,.00106753,97.8273,121.4572,117.3484,242.8832,0,U,32785,999,98103,.1923035E-3,.2989E-4,0
SEEDS II (CO-66),2008-021J,2026-05-20T10:41:53.831616,15.31697844,.00046836,97.7526,137.0429,69.5978,290.5765,0,U,32791,999,98304,.42104306E-3,.12815E-3,0
YUBILEINY (RS30),2008-025A,2026-05-20T15:43:50.535264,12.43178733,.00200641,82.5061,12.5677,14.2496,345.9146,0,U,32953,999,81627,.7353033E-3,.112E-5,0
FENGYUN 3A,2008-026A,2026-05-20T13:24:28.773504,14.19564605,.00081756,98.6875,81.9107,201.0085,159.0757,0,U,32958,999,93148,.38678657E-4,.38E-6,0
HUANJING 1A (HJ-1A),2008-041A,2026-05-20T15:43:30.409248,14.83917493,.00176589,97.6676,127.5620,225.8607,134.1157,0,U,33320,999,95432,.12266255E-3,.97E-5,0
HUANJING 1B (HJ-1B),2008-041B,2026-05-20T14:41:16.697184,14.83265581,.00346672,97.6514,130.7748,274.5218,85.2036,0,U,33321,999,95432,.10860774E-3,.845E-5,0
SHIJIAN-6 03A (SJ-6 03A),2008-053A,2026-05-20T14:37:19.695072,15.16860201,.00131167,97.8423,172.9754,105.5847,254.6834,0,U,33408,999,95878,.30971377E-3,.6037E-4,0
SHIJIAN-6 03B (SJ-6 03B),2008-053B,2026-05-20T15:03:28.235232,15.04215798,.00207815,97.8581,160.0639,130.1165,230.1886,0,U,33409,999,95860,.16000976E-4,.158E-5,0
