SAUDISAT 2              
1 28371U 04025F   26140.41575313  .00000151  00000+0  44890-4 0  9999
2 28371  98.5509 139.6811 0025221  24.8408 335.3998 14.56664647161700
COSMOS 2407             
1 28380U 04028A   26140.60893551  .00000059  00000+0  45086-4 0  9995
2 28380  82.9591  95.2581 0038576 331.5713 202.1516 13.76332189 96082
COSMOS 2414             
1 28521U 05002A   26140.49343505  .00000076  00000+0  50518-4 0  9996
2 28521  82.9505  64.5924 0041325  49.6721 310.8041 13.87923539 79972
INMARSAT 4-F1           
1 28628U 05009A   26140.55700848  .00000026  00000+0  00000+0 0  9996
2 28628   5.1328  42.7095 0002578  13.8206 200.3142  1.00269939 77393
SJ-7                    
1 28737U 05024A   26140.53107206  .00005174  00000+0  23529-3 0  9995
2 28737  97.7302 169.8989 0017437 125.5705 234.7158 15.21068783143823
CUBESAT XI-V            
1 28895U 05043F   26140.40793634  .00000795  00000+0  13338-3 0  9994
2 28895  98.2955 295.4528 0012836 295.7094  64.2787 14.72547895 97667
HINODE (SOLAR-B)        
1 29479U 06041A   26140.04652231  .00000408  00000+0  78487-4 0  9997
2 29479  98.0559 156.6138 0017932  22.2342 337.9637 14.68576898 50742
SHIJIAN-6 02B (SJ-6 02B)
1 29506U 06046B   26140.62039603  .00001334  00000+0  10832-3 0  9997
2 29506  97.7153 169.8495 0012396 146.5517 213.6492 15.01292502 66600
DMSP 5D-3 F17 (USA 191) 
1 29522U 06050A   26140.59222172  .00000003  00000+0  24123-4 0  9992
2 29522  98.7383 147.7269 0010987 130.2713 229.9423 14.14987859  8520
LAPAN-TUBSAT            
1 29709U 07001A   26140.57813927  .00000108  00000+0  19062-4 0  9990
2 29709  98.1341 139.1815 0010688 277.6345  82.3655 14.85919264 47054
HAIYANG-1B              
1 31113U 07010A   26140.38643373  .00000041  00000+0  31645-4 0  9994
2 31113  98.3487 123.3121 0012251 285.7308  74.2524 14.31019278996652
COSMO-SKYMED 2          
1 32376U 07059A   26140.61673978  .00000228  00000+0  35255-4 0  9997
2 32376  97.8884 324.6150 0001456  90.3890 269.7490 14.82160251997915
CARTOSAT-2A             
1 32783U 08021A   26140.58275900  .00000978  00000+0  13840-3 0  9995
2 32783  97.7646 190.2314 0011242 194.1794 165.9104 14.79196686974721
CUTE-1.7+APD II (CO-65) 
1 32785U 08021C   26140.60288985  .00002989  00000+0  19230-3 0  9990
2 32785  97.8273 121.4572 0010675 117.3484 242.8832 15.09156742981032
SEEDS II (CO-66)        
1 32791U 08021J   26140.44576194  .00012815  00000+0  42104-3 0  9996
2 32791  97.7526 137.0429 0004683  69.5978 290.5765 15.31697844983047
YUBILEINY (RS30)        
1 32953U 08025A   26140.65544601  .00000112  00000+0  73530-3 0  9995
2 32953  82.5061  12.5677 0020064  14.2496 345.9146 12.43178733816277
FENGYUN 3A              
1 32958U 08026A   26140.55866636  .00000038  00000+0  38679-4 0  9998
2 32958  98.6875  81.9107 0008175 201.0085 159.0757 14.19564605931485
HUANJING 1A (HJ-1A)     
1 33320U 08041A   26140.65521307  .00000970  00000+0  12266-3 0  9991
2 33320  97.6676 127.5620 0017658 225.8607 134.1157 14.83917493954328
HUANJING 1B (HJ-1B)     
1 33321U 08041B   26140.61199881  .00000845  00000+0  10861-3 0  9996
2 33321  97.6514 130.7748 0034667 274.5218  85.2036 14.83265581954321
SHIJIAN-6 03A (SJ-6 03A)
1 33408U 08053A   26140.60925573  .00006037  00000+0  30971-3 0  9992
2 33408  97.8423 172.9754 0013116 105.5847 254.6834 15.16860201958789
SHIJIAN-6 03B (SJ-6 03B)
1 33409U 08053B   26140.62741013  .00000158  00000+0  16001-4 0  9997
2 33409  97.8581 160.0639 0020781 130.1165 230.1886 15.04215798958607
